OBJECT_NAME,OBJECT_ID,EPOCH,MEAN_MOTION,ECCENTRICITY,INCLINATION,RA_OF_ASC_NODE,ARG_OF_PERICENTER,MEAN_ANOMALY,EPHEMERIS_TYPE,CLASSIFICATION_TYPE,NORAD_CAT_ID,ELEMENT_SET_NO,REV_AT_EPOCH,BSTAR,MEAN_MOTION_DOT,MEAN_MOTION_DDOT
DONGPO 02,2022-098J,2026-06-28T14:36:22.701312,15.77032198,.00036513,97.5538,311.8082,245.5638,114.5247,0,U,53452,999,21659,.73561936E-3,.120498E-2,0
DONGPO 01,2022-098K,2026-06-28T08:40:46.107264,15.74535095,.00025564,97.5601,312.0339,222.5927,137.5139,0,U,53453,999,21651,.66429721E-3,.97315E-3,0
STARLINK-4400,2022-099D,2026-06-28T14:37:18.476832,15.05653287,.00017339,97.3013,298.0598,141.4408,218.6944,0,U,53468,999,21266,.4066171E-4,.53E-5,0
STARLINK-4621,2022-105AE,2026-06-28T14:41:17.654496,15.05661768,.00019975,97.3017,58.0760,80.6927,279.4526,0,U,53676,999,20992,-.58227115E-4,-.897E-5,0
SHERPA-LTC2,2022-107BG,2026-06-28T06:29:30.758496,14.69801074,.03929986,53.2343,173.4086,257.1682,98.5121,0,U,53754,999,20417,.17827244E-3,.331E-4,0
CENTISPACE-1 S3,2022-108A,2026-06-28T13:29:15.886752,14.61265827,.00100747,53.5340,8.2232,25.0546,335.0916,0,U,53757,999,20319,.12275808E-3,.421E-5,0
CENTISPACE-1 S4,2022-108B,2026-06-28T12:58:58.914624,14.61949924,.00092316,53.5316,5.7742,14.0475,346.0756,0,U,53758,999,20322,.14866277E-3,.56E-5,0
BLUEWALKER-3,2022-111AL,2026-06-28T14:44:34.211040,15.38410979,.00053629,53.2297,340.3190,197.7627,162.3191,0,U,53807,999,21196,.15129771E-3,.5426E-4,0
YUNHAI-1 03,2022-115A,2026-06-28T13:42:07.055136,14.32725803,.0005243,98.5534,177.5735,27.3595,332.7864,0,U,53877,999,19714,.12500231E-3,.297E-5,0
CENTISPACE-1 S5,2022-126A,2026-06-28T11:50:42.444384,14.63029218,.00147539,54.9973,167.7147,93.2697,266.9985,0,U,54020,999,19869,.16488218E-3,.663E-5,0
CENTISPACE-1 S6,2022-126B,2026-06-28T13:27:24.572448,14.62297014,.001656,54.9976,169.3641,93.9506,266.3382,0,U,54021,999,19866,.64569793E-4,.139E-5,0
OTB-3-GAZELLE,2022-127A,2026-06-28T13:44:57.346080,14.42678440,.00137362,98.3947,171.1040,149.4723,210.7269,0,U,54023,999,19600,.5658389E-4,.145E-5,0
ASO-S,2022-129A,2026-06-28T14:58:01.274304,14.52067072,.00155463,98.2747,184.5402,60.4487,299.8256,0,U,54029,999,19708,.65771939E-4,.222E-5,0
HJ-2E,2022-132A,2026-06-28T14:09:52.094592,15.22478090,.00190556,97.3793,183.7616,334.3919,25.6372,0,U,54035,999,20615,.29056356E-3,.6691E-4,0
COSMOS 2561,2022-137A,2026-06-28T04:31:38.456256,15.51971844,.0009167,96.9180,237.7786,356.0975,4.0206,0,U,54109,999,20805,.22285E-3,.13329E-3,0
GONETS-M 23,2022-139A,2026-06-28T14:42:29.381184,12.42891265,.00213935,82.5079,341.1927,194.2081,165.8400,0,U,54150,999,16706,-.34918871E-4,.5E-7,0
GONETS-M 24,2022-139B,2026-06-28T15:59:38.304384,12.42891976,.0016466,82.4996,340.2113,203.9569,156.0746,0,U,54151,999,16707,.94450986E-4,.23E-6,0
GONETS-M 25,2022-139C,2026-06-28T15:40:03.667008,12.42890460,.00203926,82.5061,340.9123,203.0163,157.0005,0,U,54152,999,16707,.10058681E-3,.24E-6,0
SKIF-D,2022-139D,2026-06-26T10:48:32.922720,5.00426928,.00074,89.9498,96.6653,195.3772,164.6521,0,U,54153,999,6457,0,-.14E-6,0
MATS,2022-147A,2026-06-28T13:09:30.197088,15.05423352,.00132154,97.6821,181.0953,154.9573,205.2297,0,U,54227,999,19947,.2550028E-3,.3603E-4,0
EOS-6 (OCEANSAT-3),2022-158A,2026-06-28T15:23:36.636000,14.47006805,.00006159,98.3547,277.6839,47.2500,312.8744,0,U,54361,999,18949,.82618941E-4,.257E-5,0
DONGPO 09,2022-167D,2026-06-28T14:41:00.880800,15.36585006,.00035504,97.6898,351.1306,90.4567,269.7083,0,U,54685,999,19720,.31500352E-3,.11169E-3,0
DONGPO 08,2022-167E,2026-06-28T14:41:51.590688,15.33871462,.00092649,97.6863,348.2549,124.2482,235.9639,0,U,54686,999,19707,.31432373E-3,.1023E-3,0
DONGPO 10,2022-167H,2026-06-28T14:42:44.074368,15.34683546,.00061292,97.6943,350.2341,78.1892,282.0038,0,U,54689,999,19711,.31082017E-3,.10371E-3,0
JILIN-1 GAOFEN 03D48,2022-167P,2026-06-28T16:05:00.844224,15.35462420,.00074615,97.6879,349.6755,81.3967,278.8120,0,U,54695,999,19715,.30758342E-3,.10524E-3,0
STAR VIBE,2023-001A,2026-06-28T15:37:07.831776,15.42927033,.00068881,97.3171,244.1624,80.6413,279.5613,0,U,55009,999,19399,.32533671E-3,.14236E-3,0
BRO-8,2023-001C,2026-06-28T14:36:35.384832,15.49748354,.00064911,97.3210,244.9619,92.6111,267.5883,0,U,55011,999,19397,.55079225E-3,.30599E-3,0
CONNECTA T1.2,2023-001D,2026-06-27T22:40:02.819712,15.51549026,.00057867,97.3262,249.8309,70.2906,289.8970,0,U,55012,999,19421,.67655354E-3,.40123E-3,0
