DONGPO 02               
1 53452U 22098J   26179.60859608  .00120498  00000+0  73562-3 0  9996
2 53452  97.5538 311.8082 0003651 245.5638 114.5247 15.77032198216599
DONGPO 01               
1 53453U 22098K   26179.36164476  .00097315  00000+0  66430-3 0  9999
2 53453  97.5601 312.0339 0002556 222.5927 137.5139 15.74535095216516
STARLINK-4400           
1 53468U 22099D   26179.60924163  .00000530  00000+0  40662-4 0  9993
2 53468  97.3013 298.0598 0001733 141.4408 218.6944 15.05653287212661
STARLINK-4621           
1 53676U 22105AE  26179.61200989 -.00000897  00000+0 -58227-4 0  9990
2 53676  97.3017  58.0760 0001997  80.6927 279.4526 15.05661768209922
SHERPA-LTC2             
1 53754U 22107BG  26179.27049489  .00003310  00000+0  17827-3 0  9998
2 53754  53.2343 173.4086 0392998 257.1682  98.5121 14.69801074204176
CENTISPACE-1 S3         
1 53757U 22108A   26179.56198943  .00000421  00000+0  12276-3 0  9997
2 53757  53.5340   8.2232 0010074  25.0546 335.0916 14.61265827203194
CENTISPACE-1 S4         
1 53758U 22108B   26179.54095966  .00000560  00000+0  14866-3 0  9998
2 53758  53.5316   5.7742 0009231  14.0475 346.0756 14.61949924203223
BLUEWALKER-3            
1 53807U 22111AL  26179.61428485  .00005426  00000+0  15130-3 0  9992
2 53807  53.2297 340.3190 0005362 197.7627 162.3191 15.38410979211967
YUNHAI-1 03             
1 53877U 22115A   26179.57091499  .00000297  00000+0  12500-3 0  9998
2 53877  98.5534 177.5735 0005243  27.3595 332.7864 14.32725803197146
CENTISPACE-1 S5         
1 54020U 22126A   26179.49354681  .00000663  00000+0  16488-3 0  9993
2 54020  54.9973 167.7147 0014753  93.2697 266.9985 14.63029218198693
CENTISPACE-1 S6         
1 54021U 22126B   26179.56070107  .00000139  00000+0  64570-4 0  9994
2 54021  54.9976 169.3641 0016560  93.9506 266.3382 14.62297014198660
OTB-3-GAZELLE           
1 54023U 22127A   26179.57288595  .00000145  00000+0  56584-4 0  9993
2 54023  98.3947 171.1040 0013736 149.4723 210.7269 14.42678440196003
ASO-S                   
1 54029U 22129A   26179.62362586  .00000222  00000+0  65772-4 0  9995
2 54029  98.2747 184.5402 0015546  60.4487 299.8256 14.52067072197083
HJ-2E                   
1 54035U 22132A   26179.59018628  .00006691  00000+0  29056-3 0  9997
2 54035  97.3793 183.7616 0019055 334.3919  25.6372 15.22478090206158
COSMOS 2561             
1 54109U 22137A   26179.18863954  .00013329  00000+0  22285-3 0  9992
2 54109  96.9180 237.7786 0009167 356.0975   4.0206 15.51971844208054
GONETS-M 23             
1 54150U 22139A   26179.61284006  .00000005  00000+0 -34919-4 0  9999
2 54150  82.5079 341.1927 0021393 194.2081 165.8400 12.42891265167062
GONETS-M 24             
1 54151U 22139B   26179.66641556  .00000023  00000+0  94451-4 0  9998
2 54151  82.4996 340.2113 0016466 203.9569 156.0746 12.42891976167076
GONETS-M 25             
1 54152U 22139C   26179.65282022  .00000024  00000+0  10059-3 0  9999
2 54152  82.5061 340.9123 0020392 203.0163 157.0005 12.42890460167079
SKIF-D                  
1 54153U 22139D   26177.45038105 -.00000014  00000+0  00000+0 0  9998
2 54153  89.9498  96.6653 0007400 195.3772 164.6521  5.00426928 64570
MATS                    
1 54227U 22147A   26179.54826617  .00003603  00000+0  25500-3 0  9996
2 54227  97.6821 181.0953 0013215 154.9573 205.2297 15.05423352199475
EOS-6 (OCEANSAT-3)      
1 54361U 22158A   26179.64139625  .00000257  00000+0  82619-4 0  9991
2 54361  98.3547 277.6839 0000615  47.2500 312.8744 14.47006805189494
DONGPO 09               
1 54685U 22167D   26179.61181575  .00011169  00000+0  31500-3 0  9994
2 54685  97.6898 351.1306 0003550  90.4567 269.7083 15.36585006197203
DONGPO 08               
1 54686U 22167E   26179.61240267  .00010230  00000+0  31432-3 0  9991
2 54686  97.6863 348.2549 0009264 124.2482 235.9639 15.33871462197070
DONGPO 10               
1 54689U 22167H   26179.61301012  .00010371  00000+0  31082-3 0  9997
2 54689  97.6943 350.2341 0006129  78.1892 282.0038 15.34683546197110
JILIN-1 GAOFEN 03D48    
1 54695U 22167P   26179.67014866  .00010524  00000+0  30758-3 0  9997
2 54695  97.6879 349.6755 0007461  81.3967 278.8120 15.35462420197151
STAR VIBE               
1 55009U 23001A   26179.65078509  .00014236  00000+0  32534-3 0  9995
2 55009  97.3171 244.1624 0006888  80.6413 279.5613 15.42927033193994
BRO-8                   
1 55011U 23001C   26179.60874288  .00030599  00000+0  55079-3 0  9990
2 55011  97.3210 244.9619 0006491  92.6111 267.5883 15.49748354193979
CONNECTA T1.2           
1 55012U 23001D   26178.94447708  .00040123  00000+0  67655-3 0  9997
2 55012  97.3262 249.8309 0005786  70.2906 289.8970 15.51549026194217
